ORBCOMM FM20            
1 25416U 98046D   25343.61318109  .00001965  00000+0  69510-3 0  9995
2 25416  44.9937  70.2475 0001589 201.7215 158.3566 14.37653733429508
ORBCOMM FM16            
1 25417U 98046E   25343.67077684  .00002552  00000+0  85585-3 0  9995
2 25417  44.9937  59.1490 0003425 132.3087 227.8053 14.39517038429534
ORBCOMM FM15            
1 25418U 98046F   25343.62184598  .00002411  00000+0  81693-3 0  9994
2 25418  44.9968  65.0620 0003268 133.7546 226.3573 14.39146105429512
ORBCOMM FM14            
1 25419U 98046G   25343.66233042  .00002391  00000+0  80387-3 0  9994
2 25419  44.9956  62.5728 0002092 145.6741 214.4243 14.39563339429495
ORBCOMM FM13            
1 25420U 98046H   25343.65709539  .00002224  00000+0  77217-3 0  9997
2 25420  44.9971  72.3510 0003610  98.3052 261.8206 14.38186267428492
ORBCOMM FM21            
1 25475U 98053A   25343.77637001  .00001546  00000+0  55554-3 0  9998
2 25475  45.0063 157.7186 0001419  57.4583 302.6402 14.37784185422514
ORBCOMM FM22            
1 25476U 98053B   25343.74903980  .00002060  00000+0  70761-3 0  9997
2 25476  45.0050 151.2108 0002793  43.0365 317.0702 14.38953556422557
ORBCOMM FM23            
1 25477U 98053C   25343.75200034  .00001709  00000+0  60610-3 0  9990
2 25477  45.0063 159.6797 0002250  39.8779 320.2234 14.38022533422668
